0 FENGYUN 1C DEB
1 32190U 99025CUL 13283.04306379  .00003141  00000-0  10902-2 0  4009
2 32190 098.9407 019.3371 0077797 059.9245 301.0578 14.34587596325410
0 FENGYUN 1C DEB
1 32190U 99025CUL 13287.08824576  .00003247  00000-0  11274-2 0  4023
2 32190 098.9379 023.5158 0076116 048.7287 312.0947 14.34616957325993
0 FENGYUN 1C DEB
1 32190U 99025CUL 13288.48311459  .00003295  00000-0  11448-2 0  4036
2 32190 098.9299 024.9434 0075006 041.5768 319.1816 14.34628405326195
0 FENGYUN 1C DEB
1 32190U 99025CUL 13290.08719686  .00003361  00000-0  11669-2 0  4049
2 32190 098.9354 026.6091 0075104 038.6878 322.0103 14.34641019326427
0 FENGYUN 1C DEB
1 32190U 99025CUL 13290.50563553  .00004701  00000-0  16110-2 0  4063
2 32190 098.9417 027.0557 0074877 038.5613 322.1365 14.34656537326489
0 FENGYUN 1C DEB
1 32190U 99025CUL 13292.10972006  .00003424  00000-0  11876-2 0  4052
2 32190 098.9381 028.7067 0075645 033.4631 327.1521 14.34656738326719
0 FENGYUN 1C DEB
1 32190U 99025CUL 13293.08610346  .00003471  00000-0  12031-2 0  4063
2 32190 098.9395 029.7198 0076157 031.0430 329.5452 14.34664889326850
0 FENGYUN 1C DEB
1 32190U 99025CUL 13295.45730393  .00003581  00000-0  12385-2 0  4076
2 32190 098.9375 032.1595 0077746 022.2151 338.3264 14.34685470327190
0 FENGYUN 1C DEB
1 32190U 99025CUL 13296.08495186  .00003713  00000-0  12768-2 0  4087
2 32190 098.9308 032.8168 0083484 019.0633 341.3689 14.34693734327281
